#dP2022 12 14  0  0  0.00000000      96 __u+U ITR00 FIT  IAC
## 2240 259200.00000000   900.00000000 59927 0.0000000000000
+  117   C06C07C08C09C10C11C12C13C14C16C19C20C21C22C23C24C25
+        C26C27C28C29C30C32C33C34C35C36C37C38C39C40C41C42C43
+        C44C45C46E01E02E03E04E05E07E08E09E10E12E13E14E15E18
+        E19E21E24E25E26E27E30E31E33E34E36G01G02G03G04G05G06
+        G07G08G09G10G11G12G13G14G15G16G17G18G19G20G21G22G23
+        G24G25G26G27G29G30G31G32J02J03J04R01R02R03R04R05R07
+        R08R09R11R12R13R14R15R17R18R19R20R21R22R24R25  0  0
++         7 10  7  8 11  6  7  7  8  8  7  7  6  6  7  7  7
++         7  8  6  8  7  8  6  5  8  7  7  8  7  8  8  6  7
++         7  7  7  4  7  6  6  6  6  6  6  7  6  6  7  6  6
++         7  5  6  6  6  6  6  7  7  5  6  5  7  5  7  7  6
++         6  6  6  6  6  6  6  6  6  6  6  7  6  6  7  6  7
++         6  7  5  6  7  5  6  6  8  7  8  7  7  6  7  7  6
++         6  8  7  5  6  7  6  6  6  6  8  7  6  6  6  0  0
%c M  cc GPS ccc cccc cccc cccc cccc ccccc ccccc ccccc ccccc
%c cc cc ccc ccc cccc cccc cccc cccc ccccc ccccc ccccc ccccc
%f  0.0000000  0.000000000  0.00000000000  0.000000000000000
%f  0.0000000  0.000000000  0.00000000000  0.000000000000000
%i    0    0    0    0      0      0      0      0         0
%i    0    0    0    0      0      0      0      0         0
/* INFORMATION & ANALYSIS CENTER (IAC)      ULTRA-RAPID DATA
/* S/V CLOCKS ARE ALIGNED TO GNSS TIME                      
/* G:C1WC2W R:C1PC2P E:C1XC5X C:C2IC6I J:C1CC2S             
/* PCV:IGS20_2233 OL/AL:FES2004  NONE     YN ORB:CoN CLK:CoN
*  2022 12 14 14 30  0.00000000
PC06    184.643080  32705.466496 -26455.937405    218.251380
PC07 -13520.373694  27882.335497  28590.809943     76.181883
PC08 -13919.259612  39770.228777  -3329.081486    522.551265
PC09   5928.220632  35740.921462 -20737.514111   -783.045241
PC10  -5469.239270  28134.279330  31113.414224     51.580048
PC11   9582.682824  22808.075773  13012.666822   -236.296598
PC12  -6802.280183  14676.108487  22786.722926    345.933911
PC13  -8630.781837  40258.078983  -9584.858515    158.006799
PC14   2556.358265  15636.670699 -22956.555472    265.521855
PC16  -3813.655630  29554.487490 -29548.420003    101.587880
PC19 -13123.160089 -11779.382710  21644.988528   -903.850764
PC20   6613.495884 -16813.581003  21281.250267    805.751452
PC21 -23854.376582  12031.886577  -8024.283517   -926.591860
PC22 -26231.608218    275.013533   9486.542895   -740.416198
PC23  16019.753620   3203.812836  22621.998351   -871.702537
PC24  -7261.788766  26963.076142    121.369725   -675.741088
PC25   7540.684316  20726.863425  17099.503251     39.459163
PC26 -15383.144741  18042.084459 -14763.894863    -49.785782
PC27  14304.018056  -7842.525318 -22655.152776     66.138223
PC28  22343.004500   8898.546669 -14150.074167     47.171018
PC29 -18104.882810 -20894.091301  -3803.359523     53.650018
PC30  -2092.451968 -20310.366605 -19034.193442      1.191242
PC32  23812.185055 -12194.584163   7956.326034   -683.024472
PC33  13113.775223  11762.167193 -21645.239064   -894.181744
PC34   3167.568362  20781.268295  18336.539962     60.960641
PC35 -22906.264806  -9514.495891  12815.598212    132.841264
PC36  -6633.688535 -21341.963441 -16684.951057   -768.191420
PC37  16158.751930 -16414.561027  15741.227472   -882.082015
PC38 -17191.212711  38388.875367   4172.905237     44.908689
PC39  -6157.566977  26939.029943 -31790.015661     -1.081331
PC40 -20993.042028  21529.520715  29474.481279    -10.198401
PC41  26053.188226     10.775599  -9947.421969   -379.841690
PC42  -7930.701012  16875.294831 -20718.931950   -850.164524
PC43  17552.085736  21200.556583   4531.681148     30.070083
PC44 -14290.045920   8231.900237  22507.807540    144.868587
PC45 -16022.637830  -2695.576907 -22693.880219    -34.642421
PC46   6033.546325 -27153.549846  -1915.191976    -19.540832
PE01  23976.905368 -15403.789080   7976.385025   -576.616920
PE02 -23942.814680  15635.129705  -7698.180005      8.527312
PE03 -23680.694709   5595.400796 -16860.473930   -629.733471
PE04   5509.244194 -16138.158831  24193.769802    -13.974377
PE05 -28349.691436  -8500.718999    580.169798   -115.140375
PE07  16393.595450  17428.609742 -17430.423870     -7.109029
PE08  -5487.570780  16000.679027 -24297.001727     -2.586516
PE09 -16259.749430 -17330.340541  17637.969635   -763.755920
PE10  -4432.015369 -28909.103491  -4530.834219   -497.755733
PE12   2287.447326 -26307.746219 -13381.433901   -332.184260
PE13  10418.678575  27208.933581  -5211.321238    430.371040
PE14    596.940223  17028.678569  18443.712536     84.396932
PE15  -2420.215412  26136.631344  13693.455929    700.982132
PE18  10285.132122 -17319.652321 -23990.546840   -629.025928
PE19  25282.595555  -3556.083145  14970.414780  -3745.775164
PE21  20550.749891    416.320447  21294.787355   -500.302975
PE24  -4323.771223 -17885.213548 -23192.503483  -1001.384161
PE25 -20401.682773   -692.138751 -21434.718567   -594.908687
PE26  17188.233825  11428.226286 -21208.080480  -1881.596495
PE27   5186.712715  17274.747018  23475.904780   -463.023147
PE30 -13750.835507  23728.080846  11158.488151  -1077.474995
PE31  13065.711295 -23780.158926 -11810.320059   -510.648617
PE33  13730.428736  -9654.879620 -24370.903740   -455.451242
PE34 -13648.371338   9874.891578  24341.671738    -19.587121
PE36 -17016.219313 -12316.885521  20864.573325   -475.267130
PG01 -13729.346719   5084.629145  21824.456863    237.849187
PG02  12367.915405  -9640.544758 -20838.983203   -633.056144
PG03 -22421.480072  10977.258895   8788.325099   -375.248445
PG04 -22311.618696   1763.718761 -14382.344141    -68.670950
PG05  18691.282161    862.781788 -19066.196123   -108.045383
PG06   5883.094761  25735.047775  -2407.825437    539.951740
PG07  -7689.520642  19773.092421 -15242.813293    274.485074
PG08 -25813.929204  -5760.236097   4053.676950    -98.615802
PG09 -13089.442329  10843.711681 -20500.758534   -253.554930
PG10   5529.794093 -19629.395730  17004.336239    -16.065814
PG11  12004.712586  19216.137529 -13879.582562    -56.926579
PG12  23107.318304  -8750.865684   9329.782772   -315.856272
PG13  22897.462384  13564.449727  -1810.627187    441.827095
PG14  -8318.518436  20142.398952  15108.251592    -68.232396
PG15  26222.965771   2964.436674   3674.126281     -4.149292
PG16 -15936.168038  -6307.689626 -20696.894800   -526.133946
PG17    566.137786  16132.216570  21518.433653    685.868399
PG18   6216.295332 -21702.192657 -13875.845309    -58.835560
PG19  12730.430668  17699.325231  15122.384721    250.425940
PG20  10125.633393  11928.295705 -21453.040989    463.630230
PG21 -16434.459742  -4413.918940  21168.940933    153.856134
PG22 -15025.787401 -17518.870474  13724.339191    384.588354
PG23  15056.688332 -20371.704387   7736.151207      0.082618
PG24  15825.227679   -915.670582  21000.302776     16.040603
PG25  20288.953315 -16881.982440    432.967682    401.970084
PG26  -6358.005604 -15181.490658 -20891.777838    238.368385
PG27 -22362.035930 -13141.043143  -6865.844368    153.370230
PG29  15718.570979  -7671.441160 -20053.887360   -573.970935
PG30    310.899249  25892.957568  -5171.487976   -535.404254
PG31  -6855.944639 -25060.012446  -4314.200732   -203.247010
PG32  -4878.371588 -16795.730125  20199.094004   -329.429835
PJ02 -29252.913686  30366.848574   4563.675281     -0.317915
PJ03 -24710.085305  24412.796544  29023.569468     -6.661720
PJ04 -33555.370462  22859.086481  -6151.424359    115.192495
PR01  -3135.522011  11239.399627 -22685.425884     19.532626
PR02  16525.792944   7306.429736 -17932.713251    -23.398977
PR03  25326.409149   -701.030516  -2612.395108     69.048130
PR04  19917.994541  -7880.113069  13860.209986    168.575766
PR05   3652.461923 -10885.746858  22780.839982    104.530695
PR07 -25447.265267   1001.690926   1936.054945     46.066468
PR08 -19842.508603   8049.879202 -13836.869017    -68.551321
PR09  -5534.978185 -13185.842715 -21125.474246     92.985766
PR11 -13934.727841  18808.612561 -10113.785175     14.883272
PR12  -6284.908115  23144.497950   8741.972236     23.614013
PR13   4230.644015  14459.768758  20567.161516    -29.928673
PR14  13410.216703  -4370.417249  21264.865336     24.091758
PR15  13986.586189 -19282.453610   9137.546913     92.341625
PR17  15665.807426   8259.847685 -18361.341360    586.889234
PR18   7496.897290  -7530.256078 -23169.662752     56.777232
PR19  -2974.664702 -18902.957757 -16856.714417   -214.549232
PR20 -14316.387418 -21000.867086   2409.416564    -83.968374
PR21 -15068.902706  -6824.194313  19413.224355   -357.432801
PR22  -7683.134793   8147.577322  22948.784392     19.301232
PR24  15167.343395  20299.319374  -2980.987885    132.723455
PR25 -15526.218759  -9182.586747  18035.435531     48.875057
EOF
